CCSDS_OMM_VERS = 2.0
CREATION_DATE  = 
ORIGINATOR     = 

OBJECT_NAME    = STARLINK-36523
OBJECT_ID      = 2026-008R
CENTER_NAME    = EARTH
REF_FRAME      = TEME
TIME_SYSTEM    = UTC
MEAN_ELEMENT_THEORY = SGP/SGP4

EPOCH          = 2026-02-02T12:00:01.999296
MEAN_MOTION    = 15.75012294
ECCENTRICITY   = .000144
INCLINATION    = 43.0001
RA_OF_ASC_NODE = 46.9938
ARG_OF_PERICENTER = 274.9975
MEAN_ANOMALY   = 156.5483

EPHEMERIS_TYPE = 0
CLASSIFICATION_TYPE = U
NORAD_CAT_ID   = 67460
ELEMENT_SET_NO = 999
REV_AT_EPOCH   = 415
BSTAR          = .32255E-3
MEAN_MOTION_DOT = .493E-3
MEAN_MOTION_DDOT = 0

CCSDS_OMM_VERS = 2.0
CREATION_DATE  = 
ORIGINATOR     = 

OBJECT_NAME    = STARLINK-36522
OBJECT_ID      = 2026-008S
CENTER_NAME    = EARTH
REF_FRAME      = TEME
TIME_SYSTEM    = UTC
MEAN_ELEMENT_THEORY = SGP/SGP4

EPOCH          = 2026-02-02T12:00:01.999296
MEAN_MOTION    = 15.71152446
ECCENTRICITY   = .0001359
INCLINATION    = 43.0001
RA_OF_ASC_NODE = 47.0032
ARG_OF_PERICENTER = 283.5320
MEAN_ANOMALY   = 143.9581

EPHEMERIS_TYPE = 0
CLASSIFICATION_TYPE = U
NORAD_CAT_ID   = 67461
ELEMENT_SET_NO = 999
REV_AT_EPOCH   = 413
BSTAR          = -.17539E-1
MEAN_MOTION_DOT = -.2009967E-1
MEAN_MOTION_DDOT = 0

CCSDS_OMM_VERS = 2.0
CREATION_DATE  = 
ORIGINATOR     = 

OBJECT_NAME    = STARLINK-36504
OBJECT_ID      = 2026-008T
CENTER_NAME    = EARTH
REF_FRAME      = TEME
TIME_SYSTEM    = UTC
MEAN_ELEMENT_THEORY = SGP/SGP4

EPOCH          = 2026-02-02T12:00:01.999296
MEAN_MOTION    = 15.75047866
ECCENTRICITY   = .0001444
INCLINATION    = 43.0003
RA_OF_ASC_NODE = 46.9844
ARG_OF_PERICENTER = 280.1708
MEAN_ANOMALY   = 155.2029

EPHEMERIS_TYPE = 0
CLASSIFICATION_TYPE = U
NORAD_CAT_ID   = 67462
ELEMENT_SET_NO = 999
REV_AT_EPOCH   = 415
BSTAR          = -.12186E-3
MEAN_MOTION_DOT = -.1916E-3
MEAN_MOTION_DDOT = 0

CCSDS_OMM_VERS = 2.0
CREATION_DATE  = 
ORIGINATOR     = 

OBJECT_NAME    = STARLINK-36505
OBJECT_ID      = 2026-008U
CENTER_NAME    = EARTH
REF_FRAME      = TEME
TIME_SYSTEM    = UTC
MEAN_ELEMENT_THEORY = SGP/SGP4

EPOCH          = 2026-02-02T12:00:01.999296
MEAN_MOTION    = 15.75056008
ECCENTRICITY   = .0001519
INCLINATION    = 43.0001
RA_OF_ASC_NODE = 46.9798
ARG_OF_PERICENTER = 276.9110
MEAN_ANOMALY   = 160.3793

EPHEMERIS_TYPE = 0
CLASSIFICATION_TYPE = U
NORAD_CAT_ID   = 67463
ELEMENT_SET_NO = 999
REV_AT_EPOCH   = 413
BSTAR          = -.21501E-3
MEAN_MOTION_DOT = -.33398E-3
MEAN_MOTION_DDOT = 0

CCSDS_OMM_VERS = 2.0
CREATION_DATE  = 
ORIGINATOR     = 

OBJECT_NAME    = STARLINK-36421
OBJECT_ID      = 2026-008V
CENTER_NAME    = EARTH
REF_FRAME      = TEME
TIME_SYSTEM    = UTC
MEAN_ELEMENT_THEORY = SGP/SGP4

EPOCH          = 2026-02-02T12:00:01.999296
MEAN_MOTION    = 15.71041473
ECCENTRICITY   = .0001314
INCLINATION    = 42.9997
RA_OF_ASC_NODE = 46.9908
ARG_OF_PERICENTER = 282.3185
MEAN_ANOMALY   = 150.5330

EPHEMERIS_TYPE = 0
CLASSIFICATION_TYPE = U
NORAD_CAT_ID   = 67464
ELEMENT_SET_NO = 999
REV_AT_EPOCH   = 413
BSTAR          = -.17787E-1
MEAN_MOTION_DOT = -.2026494E-1
MEAN_MOTION_DDOT = 0

CCSDS_OMM_VERS = 2.0
CREATION_DATE  = 
ORIGINATOR     = 

OBJECT_NAME    = STARLINK-36437
OBJECT_ID      = 2026-008W
CENTER_NAME    = EARTH
REF_FRAME      = TEME
TIME_SYSTEM    = UTC
MEAN_ELEMENT_THEORY = SGP/SGP4

EPOCH          = 2026-02-02T12:00:01.999296
MEAN_MOTION    = 15.75018676
ECCENTRICITY   = .0001501
INCLINATION    = 43.0001
RA_OF_ASC_NODE = 46.9694
ARG_OF_PERICENTER = 267.1226
MEAN_ANOMALY   = 173.9984

EPHEMERIS_TYPE = 0
CLASSIFICATION_TYPE = U
NORAD_CAT_ID   = 67465
ELEMENT_SET_NO = 999
REV_AT_EPOCH   = 413
BSTAR          = .29345E-3
MEAN_MOTION_DOT = .44798E-3
MEAN_MOTION_DDOT = 0

CCSDS_OMM_VERS = 2.0
CREATION_DATE  = 
ORIGINATOR     = 

OBJECT_NAME    = STARLINK-36520
OBJECT_ID      = 2026-008X
CENTER_NAME    = EARTH
REF_FRAME      = TEME
TIME_SYSTEM    = UTC
MEAN_ELEMENT_THEORY = SGP/SGP4

EPOCH          = 2026-02-02T12:00:01.999296
MEAN_MOTION    = 15.75388532
ECCENTRICITY   = .0000966
INCLINATION    = 42.9998
RA_OF_ASC_NODE = 46.9645
ARG_OF_PERICENTER = 262.8766
MEAN_ANOMALY   = 180.1299

EPHEMERIS_TYPE = 0
CLASSIFICATION_TYPE = U
NORAD_CAT_ID   = 67466
ELEMENT_SET_NO = 999
REV_AT_EPOCH   = 414
BSTAR          = -.13348E-1
MEAN_MOTION_DOT = -.1822065E-1
MEAN_MOTION_DDOT = 0

CCSDS_OMM_VERS = 2.0
CREATION_DATE  = 
ORIGINATOR     = 

OBJECT_NAME    = STARLINK-36425
OBJECT_ID      = 2026-008Y
CENTER_NAME    = EARTH
REF_FRAME      = TEME
TIME_SYSTEM    = UTC
MEAN_ELEMENT_THEORY = SGP/SGP4

EPOCH          = 2026-02-02T12:00:01.999296
MEAN_MOTION    = 15.67365737
ECCENTRICITY   = .0001196
INCLINATION    = 43.0000
RA_OF_ASC_NODE = 47.0178
ARG_OF_PERICENTER = 287.6063
MEAN_ANOMALY   = 133.9314

EPHEMERIS_TYPE = 0
CLASSIFICATION_TYPE = U
NORAD_CAT_ID   = 67467
ELEMENT_SET_NO = 999
REV_AT_EPOCH   = 414
BSTAR          = -.20589E-1
MEAN_MOTION_DOT = -.2012845E-1
MEAN_MOTION_DDOT = 0

CCSDS_OMM_VERS = 2.0
CREATION_DATE  = 
ORIGINATOR     = 

OBJECT_NAME    = STARLINK-36414
OBJECT_ID      = 2026-008Z
CENTER_NAME    = EARTH
REF_FRAME      = TEME
TIME_SYSTEM    = UTC
MEAN_ELEMENT_THEORY = SGP/SGP4

EPOCH          = 2026-02-02T12:00:01.999296
MEAN_MOTION    = 15.73734755
ECCENTRICITY   = .0001071
INCLINATION    = 43.0002
RA_OF_ASC_NODE = 46.6896
ARG_OF_PERICENTER = 280.9139
MEAN_ANOMALY   = 271.6549

EPHEMERIS_TYPE = 0
CLASSIFICATION_TYPE = U
NORAD_CAT_ID   = 67468
ELEMENT_SET_NO = 999
REV_AT_EPOCH   = 414
BSTAR          = -.15785E-1
MEAN_MOTION_DOT = -.202033E-1
MEAN_MOTION_DDOT = 0

CCSDS_OMM_VERS = 2.0
CREATION_DATE  = 
ORIGINATOR     = 

OBJECT_NAME    = STARLINK-36441
OBJECT_ID      = 2026-008AA
CENTER_NAME    = EARTH
REF_FRAME      = TEME
TIME_SYSTEM    = UTC
MEAN_ELEMENT_THEORY = SGP/SGP4

EPOCH          = 2026-02-02T12:00:01.999296
MEAN_MOTION    = 15.70516762
ECCENTRICITY   = .0001099
INCLINATION    = 42.9999
RA_OF_ASC_NODE = 46.6975
ARG_OF_PERICENTER = 271.4470
MEAN_ANOMALY   = 277.4335

EPHEMERIS_TYPE = 0
CLASSIFICATION_TYPE = U
NORAD_CAT_ID   = 67469
ELEMENT_SET_NO = 999
REV_AT_EPOCH   = 414
BSTAR          = -.18328E-1
MEAN_MOTION_DOT = -.2040066E-1
MEAN_MOTION_DDOT = 0

CCSDS_OMM_VERS = 2.0
CREATION_DATE  = 
ORIGINATOR     = 

OBJECT_NAME    = STARLINK-36454
OBJECT_ID      = 2026-008AB
CENTER_NAME    = EARTH
REF_FRAME      = TEME
TIME_SYSTEM    = UTC
MEAN_ELEMENT_THEORY = SGP/SGP4

EPOCH          = 2026-02-02T12:00:01.999296
MEAN_MOTION    = 15.72231136
ECCENTRICITY   = .0000985
INCLINATION    = 43.0000
RA_OF_ASC_NODE = 46.6794
ARG_OF_PERICENTER = 275.1210
MEAN_ANOMALY   = 280.7108

EPHEMERIS_TYPE = 0
CLASSIFICATION_TYPE = U
NORAD_CAT_ID   = 67470
ELEMENT_SET_NO = 999
REV_AT_EPOCH   = 414
BSTAR          = -.17004E-1
MEAN_MOTION_DOT = -.2036759E-1
MEAN_MOTION_DDOT = 0

CCSDS_OMM_VERS = 2.0
CREATION_DATE  = 
ORIGINATOR     = 

OBJECT_NAME    = STARLINK-36334
OBJECT_ID      = 2026-008AC
CENTER_NAME    = EARTH
REF_FRAME      = TEME
TIME_SYSTEM    = UTC
MEAN_ELEMENT_THEORY = SGP/SGP4

EPOCH          = 2026-02-02T12:00:01.999296
MEAN_MOTION    = 15.75446448
ECCENTRICITY   = .0000907
INCLINATION    = 42.9999
RA_OF_ASC_NODE = 46.6821
ARG_OF_PERICENTER = 272.3560
MEAN_ANOMALY   = 282.7261

EPHEMERIS_TYPE = 0
CLASSIFICATION_TYPE = U
NORAD_CAT_ID   = 67471
ELEMENT_SET_NO = 999
REV_AT_EPOCH   = 414
BSTAR          = -.11403E-1
MEAN_MOTION_DOT = -.1589187E-1
MEAN_MOTION_DDOT = 0

