STARLINK-36523          
1 67460U 26008R   26033.50002314  .00049300  00000+0  32255-3 0  9993
2 67460  43.0001  46.9938 0001440 274.9975 156.5483 15.75012294  4152
STARLINK-36522          
1 67461U 26008S   26033.50002314 -.02009967  00000+0 -17539-1 0  9999
2 67461  43.0001  47.0032 0001359 283.5320 143.9581 15.71152446  4136
STARLINK-36504          
1 67462U 26008T   26033.50002314 -.00019160  00000+0 -12186-3 0  9999
2 67462  43.0003  46.9844 0001444 280.1708 155.2029 15.75047866  4154
STARLINK-36505          
1 67463U 26008U   26033.50002314 -.00033398  00000+0 -21501-3 0  9990
2 67463  43.0001  46.9798 0001519 276.9110 160.3793 15.75056008  4135
STARLINK-36421          
1 67464U 26008V   26033.50002314 -.02026494  00000+0 -17787-1 0  9991
2 67464  42.9997  46.9908 0001314 282.3185 150.5330 15.71041473  4131
STARLINK-36437          
1 67465U 26008W   26033.50002314  .00044798  00000+0  29345-3 0  9990
2 67465  43.0001  46.9694 0001501 267.1226 173.9984 15.75018676  4134
STARLINK-36520          
1 67466U 26008X   26033.50002314 -.01822065  00000+0 -13348-1 0  9999
2 67466  42.9998  46.9645 0000966 262.8766 180.1299 15.75388532  4140
STARLINK-36425          
1 67467U 26008Y   26033.50002314 -.02012845  00000+0 -20589-1 0  9993
2 67467  43.0000  47.0178 0001196 287.6063 133.9314 15.67365737  4148
STARLINK-36414          
1 67468U 26008Z   26033.50002314 -.02020330  00000+0 -15785-1 0  9994
2 67468  43.0002  46.6896 0001071 280.9139 271.6549 15.73734755  4142
STARLINK-36441          
1 67469U 26008AA  26033.50002314 -.02040066  00000+0 -18328-1 0  9999
2 67469  42.9999  46.6975 0001099 271.4470 277.4335 15.70516762  4147
STARLINK-36454          
1 67470U 26008AB  26033.50002314 -.02036759  00000+0 -17004-1 0  9995
2 67470  43.0000  46.6794 0000985 275.1210 280.7108 15.72231136  4145
STARLINK-36334          
1 67471U 26008AC  26033.50002314 -.01589187  00000+0 -11403-1 0  9990
2 67471  42.9999  46.6821 0000907 272.3560 282.7261 15.75446448  4142
